AEROCUBE 12A            
1 43556U 18046C   20365.10777263  .00002722  00000-0  10234-3 0  9997
2 43556  51.6393 244.9658 0007109 276.0750  83.9420 15.30732319137331
AEROCUBE 12B            
1 43557U 18046D   20365.47215339  .00003284  00000-0  12250-3 0  9993
2 43557  51.6406 244.3775 0007382 276.7539  83.2601 15.30309622137326
SIRIUSSAT-1             
1 43595U 98067PG  20344.55055662  .07916525  12514-4  56251-3 0  9997
2 43595  51.6588  97.6693 0009437  42.2825  52.9592 16.39998780132780
SIRIUSSAT-2             
1 43596U 98067PH  20344.36554324  .08904132  12494-4  57179-3 0  9995
2 43596  51.6062  99.6513 0006261 312.7483  99.6145 16.40921535132742
SURFSAT                 
1 43614U 18070B   20364.83446448  .00005741  00000-0  14109-3 0  9995
2 43614  93.0265 235.5574 0012413 309.6155  50.4004 15.40600152128543
CP7 (DAVE)              
1 43615U 18070C   20364.82327927  .00005335  00000-0  13211-3 0  9997
2 43615  93.0269 235.5288 0012589 309.1875  50.8261 15.40374549128534
ELFIN-B                 
1 43616U 18070D   20364.66035733  .00008793  00000-0  20339-3 0  9991
2 43616  93.0229 235.4907 0012702 310.3791  49.6355 15.42403283128581
ELFIN-A                 
1 43617U 18070E   20364.66282577  .00008256  00000-0  18901-3 0  9998
2 43617  93.0282 236.1766 0011958 306.8584  53.1575 15.42725563128597
CUBEBEL-1 (BSUSAT-1)    
1 43666U 18083E   20365.42028192  .00002038  00000-0  10107-3 0  9994
2 43666  97.4730  29.8178 0015862  43.0543  70.5695 15.18768344120353
CICERO 10               
1 43690U 18088A   20365.42722301  .00002201  00000-0  98199-4 0  9999
2 43690  85.0383 309.1510 0013033 318.9468  41.0791 15.20715067118511
IRVINE01                
1 43693U 18088D   20364.85057016  .00006215  00000-0  25320-3 0  9996
2 43693  85.0352 307.5647 0014806 296.5283  63.4442 15.24157633118590
PROXIMA I               
1 43694U 18088E   20365.06324461  .00002338  00000-0  99047-4 0  9992
2 43694  85.0325 307.4285 0016539 286.5470  73.3955 15.22455225118595
PROXIMA II              
1 43696U 18088G   20365.12708051  .00002344  00000-0  99311-4 0  9993
2 43696  85.0326 307.3923 0016584 286.2513  73.6904 15.22455065118602
FACSAT-1                
1 43721U 18096C   20365.42949735  .00003180  00000-0  11854-3 0  9994
2 43721  97.4046  77.8191 0018125 145.9148 342.9711 15.28027555116309
CENTAURI-2              
1 43722U 18096D   20365.48268888  .00004583  00000-0  16560-3 0  9991
2 43722  97.4056  78.3726 0018014 145.2966 214.9453 15.28819107116335
INNOSAT-2               
1 43738U 18096V   20365.36785278  .00005971  00000-0  19545-3 0  9990
2 43738  97.4097  81.1094 0023274 150.5135 279.1519 15.31803321116508
SIRION PATHFINDER-2     
1 43759U 18099B   20365.30939443 -.00000192  00000-0 -12219-4 0  9999
2 43759  97.6867  73.4172 0012857 247.0338 112.9523 14.95394565113208
CORVUS BC4              
1 43767U 18099K   20365.32355631  .00000317  00000-0  34293-4 0  9994
2 43767  97.6830  72.6237 0010551 250.9079 109.1004 14.94829487113166
MOVE-II                 
1 43780U 18099Y   20365.16529418  .00000786  00000-0  75784-4 0  9997
2 43780  97.6879  73.2894 0011997 259.3450 100.6420 14.95661826113161
SPACEBEE-7              
1 43816U 18099BL  20365.46991392  .00000989  00000-0  93401-4 0  9995
2 43816  97.6888  74.0955 0012234 239.8328 120.1682 14.95906579112792
SPACEBEE-5              
1 43817U 18099BM  20364.65956383  .00001702  00000-0  15353-3 0  9990
2 43817  97.6957  74.1129 0012241 242.5035 117.4943 14.96808784112708
SPACEBEE-6              
1 43818U 18099BN  20365.47078336  .00001311  00000-0  12134-3 0  9995
2 43818  97.6910  74.3475 0012224 239.2234 120.7784 14.96184251112952
SHIELDS 1               
1 43850U 18104B   20365.39314388  .00000898  00000-0  37824-4 0  9992
2 43850  85.0288  45.7889 0017074  73.1122 287.1991 15.21631341113266
STF-1                   
1 43852U 18104D   20364.68066865  .00001958  00000-0  84113-4 0  9990
2 43852  85.0328  46.9051 0016769  88.2183 272.0980 15.21842883113133
ZACUBE-2                
1 43907U 18111AH  20365.44133278  .00001027  00000-0  43870-4 0  9999
2 43907  97.2494 259.0969 0021498 166.4844 310.8414 15.24885531111878
LUME 1                  
1 43908U 18111AJ  20365.46991649  .00002157  00000-0  87148-4 0  9997
2 43908  97.2499 259.4601 0021164 165.0500 195.1368 15.25616819111903
AOBA VELOX-IV           
1 43940U 19003J   20364.79950900  .00004041  00000-0  15912-3 0  9997
2 43940  97.2037  49.1830 0021619 250.0751 109.8159 15.25956624108427
CATSAT-2                
1 44029U 98067PV  20365.15035640  .00071012  00000-0  40808-3 0  9993
2 44029  51.6396  37.5951 0003667  61.7628 298.3743 15.78083704109260
DELPHINI                
1 44030U 98067PW  20364.81745701  .00112034  00000-0  52675-3 0  9998
2 44030  51.6306  35.1074 0004884  54.1158 306.0298 15.82288775109238
UNITE                   
1 44031U 98067PX  20364.44027008  .00028836  00000-0  26584-3 0  9997
2 44031  51.6379  56.1031 0003053  65.4082 294.7232 15.67371221108921
CATSAT-1                
1 44033U 98067PZ  20365.46702904  .00084694  00000-0  48522-3 0  9997
2 44033  51.6396  35.9691 0003765  61.3492 298.7887 15.78082060109225
RAAVANA-1               
1 44329U 98067QE  20364.47678770  .00030395  00000-0  31440-3 0  9998
2 44329  51.6381  72.9435 0006026  10.7129 349.3994 15.64441617 87456
UGUISU                  
1 44330U 98067QF  20364.56764031  .00028157  00000-0  29375-3 0  9993
2 44330  51.6358  72.7489 0006025  10.8605 349.2519 15.64267434 87442
NEPALISAT-1             
1 44331U 98067QG  20364.59565969  .00029089  00000-0  30118-3 0  9998
2 44331  51.6359  72.1878 0006039  13.6412 346.4746 15.64441392 87462
SPOOQY-1                
1 44332U 98067QH  20365.44919884  .00028450  00000-0  29744-3 0  9997
2 44332  51.6369  68.1548 0005338  18.9917 341.1276 15.64211598 87555
SPACEBEE-9              
1 44370U 19037F   20364.70279024  .00025675  00000-0  47408-3 0  9995
2 44370  45.0043 101.0076 0013806 276.8239  83.1081 15.48586309 84806
SPACEBEE-8              
1 44371U 19037G   20364.67373360  .00073651  00000-0  88229-3 0  9993
2 44371  45.0043  84.7302 0012143 315.1092  44.8820 15.60003802 84994
IOD-1 GEMS              
1 44385U 98067QK  20364.63162189  .00078325  00000-0  54850-3 0  9995
2 44385  51.6369  64.2460 0004679 357.7644   2.3333 15.73521429 85051
MOVE-IIB                
1 44398U 19038N   20365.17089505  .00002118  00000-0  12299-3 0  9998
2 44398  97.5601 324.2551 0024573 169.7951 190.3789 15.12982845 82168
SONATE                  
1 44400U 19038Q   20365.53554415  .00001121  00000-0  68199-4 0  9993
2 44400  97.5656 324.5955 0025101 167.5879 192.5973 15.12248167 82202
LUCKY-7                 
1 44406U 19038W   20364.85241554  .00001190  00000-0  71567-4 0  9999
2 44406  97.5670 324.0929 0024614 169.0746 191.1024 15.12572992 82105
BEESAT 9                
1 44412U 19038AC  20364.96735436  .00001657  00000-0  97697-4 0  9995
2 44412  97.5658 324.1975 0022425 173.9068 186.2440 15.12772089 81823
JAISAT-1                
1 44419U 19038F   20365.32191596  .00001596  00000-0  93037-4 0  9992
2 44419  97.5662 324.9632 0021390 171.0632 189.0984 15.13256949 82210
SWIATOWID               
1 44426U 98067QL  20365.53123168  .00105725  00000-0  61632-3 0  9996
2 44426  51.6397  56.3722 0005240   7.0627 143.6152 15.77594517 85243
KRAKSAT                 
1 44427U 98067QM  20365.40625771  .00017614  00000-0  21531-3 0  9993
2 44427  51.6423  75.3366 0003602 338.9768  82.0579 15.60501267 85028
VCC A                   
1 44428U 98067QN  20364.50083736  .00028268  00000-0  30469-3 0  9990
2 44428  51.6391  75.4107 0003352 350.6789   9.4143 15.63445774 84946
ENTRYSAT                
1 44429U 98067QP  20364.91443140  .00035639  00000-0  34310-3 0  9994
2 44429  51.6360  69.8522 0003532 351.5351   8.5584 15.66179483 85052
VCC C                   
1 44430U 98067QQ  20364.57270605  .00055055  00000-0  44882-3 0  9991
2 44430  51.6359  67.5676 0003782 358.8738   1.2250 15.70063732 83886
VCC B                   
1 44431U 98067QR  20364.49036649  .00029982  00000-0  32072-3 0  9999
2 44431  51.6370  75.2950 0003524 350.2768   9.8158 15.63606370 84889
DUCHIFAT-3              
1 44854U 19089C   20365.44522708  .00000728  00000-0  64914-4 0  9995
2 44854  36.9674  19.9387 0008093 216.4590 143.5609 14.99274760 57724
EYESAT-NANO             
1 44877U 19092E   20365.50479614  .00002345  00000-0  12043-3 0  9990
2 44877  97.4537 185.6514 0014716  60.8149 299.4555 15.17391984 57317
ORBITAL FACTORY 2 (OF-2)
1 45113U 19071C   20364.75734230  .00003765  00000-0  12202-3 0  9999
2 45113  51.6412 139.4819 0012759  43.2476 316.9506 15.34484064 51106
M2 PATHFINDER           
1 45727U 20037E   20365.47191366  .00000343  00000-0  39953-4 0  9993
2 45727  97.7005 181.0497 0013351  14.0240 346.1353 14.91292350 27234
NETSAT-4                
1 46504U 20068U   20364.88935966  .00000762  00000-0  62856-4 0  9990
2 46504  97.6782 297.3313 0009371 322.5492  37.5067 15.01945133 13784
NETSAT-3                
1 46505U 20068V   20364.69191006  .00000935  00000-0  76129-4 0  9999
2 46505  97.6776 297.1235 0009352 322.7578  37.2985 15.01907477 13768
NETSAT-1                
1 46506U 20068W   20364.76114603  .00001041  00000-0  84298-4 0  9991
2 46506  97.6756 297.1802 0009220 321.2633  38.7932 15.01868371 13775
NETSAT-2                
1 46507U 20068X   20364.76214123  .00001090  00000-0  88101-4 0  9991
2 46507  97.6750 297.1800 0009228 320.5643  39.4910 15.01848695 13725
SPOC                    
1 46921U 98067RR  20365.00210959  .00010554  00000-0  18438-3 0  9996
2 46921  51.6436  98.9699 0002048 156.3285 203.7799 15.51252740  8527
BOBCAT-1                
1 46922U 98067RS  20364.73888573  .00015048  00000-0  25613-3 0  9995
2 46922  51.6437 100.2127 0001630 160.7464 199.3587 15.51615513  8443
